ONEWEB-0363             
1 49289U 21090L   24146.52089676  .00005789  00000+0  14200-1 0  9990
2 49289  87.9224  64.1963 0001089  75.3062 284.8191 13.20752596130957
ONEWEB-0364             
1 49290U 21090M   24146.48301436 -.00005478  00000+0 -13507-1 0  9994
2 49290  87.9239  64.2277 0001860  74.6455 285.4883 13.20797626132083
ONEWEB-0365             
1 49291U 21090N   24146.55338715 -.00002129  00000+0 -53495-2 0  9994
2 49291  87.9145  94.7476 0002223  80.9553 279.1831 13.19750520128440
ONEWEB-0366             
1 49292U 21090P   24146.55487572 -.00000677  00000+0 -18614-2 0  9991
2 49292  87.8977  79.4625 0001858  85.1483 274.9859 13.14505976128688
ONEWEB-0367             
1 49293U 21090Q   24146.51932695  .00001398  00000+0  34069-2 0  9990
2 49293  87.9224  64.1902 0002315  81.6630 278.4766 13.20767567130477
ONEWEB-0368             
1 49294U 21090R   24146.49248679 -.00000880  00000+0 -21972-2 0  9996
2 49294  87.9220  64.2259 0001627 121.3339 238.7954 13.20775109131620
ONEWEB-0369             
1 49295U 21090S   24146.54865905 -.00001656  00000+0 -41701-2 0  9994
2 49295  87.9143  94.7505 0001871  92.7453 267.3894 13.19735630127142
ONEWEB-0370             
1 49296U 21090T   24146.52882028 -.00000380  00000+0 -96613-3 0  9994
2 49296  87.9199  64.1949 0002341  69.1432 290.9951 13.20758727130510
